{
  "type": "FeatureCollection",
  "features": [
    {
      "type": "Feature",
      "properties": {
        "norad_id": 37530,
        "name": "COSMOS 2251 DEB",
        "group": "cosmos-2251-debris",
        "lat": 11.29786070005285,
        "lon": 154.94871801740027,
        "alt_km": 788.5402974631097,
        "timestamp": "2025-12-10T05:46:14.224444+00:00",
        "meta_object_name": "COSMOS 2251 DEB",
        "meta_object_id": "1993-036BNK",
        "meta_epoch": "2025-11-30T19:50:14.646624",
        "meta_mean_motion": 14.34478642,
        "meta_eccentricity": 0.00255427,
        "meta_inclination": 74.0356,
        "meta_ra_of_asc_node": 355.4602,
        "meta_arg_of_pericenter": 61.4891,
        "meta_mean_anomaly": 111.2815,
        "meta_ephemeris_type": 0,
        "meta_classification_type": "U",
        "meta_norad_cat_id": 37530,
        "meta_element_set_no": 999,
        "meta_rev_at_epoch": 85061,
        "meta_bstar": 0.00021143929,
        "meta_mean_motion_dot": 5.72e-06,
        "meta_mean_motion_ddot": 0,
        "tle_line1": "1 37530U 93036BNK 25334.82655841  .00000572  00000+0  21144-3 0  9993",
        "tle_line2": "2 37530  74.0356 355.4602 0025542  61.4891 111.2815 14.34478642850619"
      },
      "geometry": {
        "type": "Point",
        "coordinates": [
          154.94871801740027,
          11.29786070005285
        ]
      }
    },
    {
      "type": "Feature",
      "properties": {
        "norad_id": 37532,
        "name": "COSMOS 2251 DEB",
        "group": "cosmos-2251-debris",
        "lat": -53.80726843605071,
        "lon": 63.36045524261738,
        "alt_km": 756.0530414372433,
        "timestamp": "2025-12-10T05:46:14.224454+00:00",
        "meta_object_name": "COSMOS 2251 DEB",
        "meta_object_id": "1993-036BNM",
        "meta_epoch": "2025-12-07T10:55:32.240064",
        "meta_mean_motion": 14.42395579,
        "meta_eccentricity": 0.00158251,
        "meta_inclination": 74.0509,
        "meta_ra_of_asc_node": 225.5137,
        "meta_arg_of_pericenter": 327.0165,
        "meta_mean_anomaly": 213.451,
        "meta_ephemeris_type": 0,
        "meta_classification_type": "U",
        "meta_norad_cat_id": 37532,
        "meta_element_set_no": 999,
        "meta_rev_at_epoch": 84839,
        "meta_bstar": 0.00041437252,
        "meta_mean_motion_dot": 1.346e-05,
        "meta_mean_motion_ddot": 0,
        "tle_line1": "1 37532U 93036BNM 25341.45523426  .00001346  00000+0  41437-3 0  9992",
        "tle_line2": "2 37532  74.0509 225.5137 0015825 327.0165 213.4510 14.42395579848394"
      },
      "geometry": {
        "type": "Point",
        "coordinates": [
          63.36045524261738,
          -53.80726843605071
        ]
      }
    },
    {
      "type": "Feature",
      "properties": {
        "norad_id": 37533,
        "name": "COSMOS 2251 DEB",
        "group": "cosmos-2251-debris",
        "lat": -56.88065075040626,
        "lon": 42.17559894071129,
        "alt_km": 747.257936826596,
        "timestamp": "2025-12-10T05:46:14.224464+00:00",
        "meta_object_name": "COSMOS 2251 DEB",
        "meta_object_id": "1993-036BNN",
        "meta_epoch": "2025-12-09T08:13:21.048672",
        "meta_mean_motion": 14.12141877,
        "meta_eccentricity": 0.01580542,
        "meta_inclination": 74.0693,
        "meta_ra_of_asc_node": 197.7932,
        "meta_arg_of_pericenter": 255.2214,
        "meta_mean_anomaly": 103.1369,
        "meta_ephemeris_type": 0,
        "meta_classification_type": "U",
        "meta_norad_cat_id": 37533,
        "meta_element_set_no": 999,
        "meta_rev_at_epoch": 62873,
        "meta_bstar": 0.0019484338,
        "meta_mean_motion_dot": 4e-05,
        "meta_mean_motion_ddot": 0,
        "tle_line1": "1 37533U 93036BNN 25343.34260473  .00004000  00000+0  19484-2 0  9999",
        "tle_line2": "2 37533  74.0693 197.7932 0158054 255.2214 103.1369 14.12141877628739"
      },
      "geometry": {
        "type": "Point",
        "coordinates": [
          42.17559894071129,
          -56.88065075040626
        ]
      }
    },
    {
      "type": "Feature",
      "properties": {
        "norad_id": 37535,
        "name": "COSMOS 2251 DEB",
        "group": "cosmos-2251-debris",
        "lat": 67.21332908938886,
        "lon": -144.73495741969612,
        "alt_km": 698.3558405802778,
        "timestamp": "2025-12-10T05:46:14.224474+00:00",
        "meta_object_name": "COSMOS 2251 DEB",
        "meta_object_id": "1993-036BNQ",
        "meta_epoch": "2025-12-09T12:53:25.433952",
        "meta_mean_motion": 14.58418481,
        "meta_eccentricity": 0.0027902,
        "meta_inclination": 74.0239,
        "meta_ra_of_asc_node": 79.6012,
        "meta_arg_of_pericenter": 218.8446,
        "meta_mean_anomaly": 156.6202,
        "meta_ephemeris_type": 0,
        "meta_classification_type": "U",
        "meta_norad_cat_id": 37535,
        "meta_element_set_no": 999,
        "meta_rev_at_epoch": 85278,
        "meta_bstar": 0.0012987,
        "meta_mean_motion_dot": 6.029e-05,
        "meta_mean_motion_ddot": 0,
        "tle_line1": "1 37535U 93036BNQ 25343.53709993  .00006029  00000+0  12987-2 0  9991",
        "tle_line2": "2 37535  74.0239  79.6012 0027902 218.8446 156.6202 14.58418481852784"
      },
      "geometry": {
        "type": "Point",
        "coordinates": [
          -144.73495741969612,
          67.21332908938886
        ]
      }
    },
    {
      "type": "Feature",
      "properties": {
        "norad_id": 37537,
        "name": "COSMOS 2251 DEB",
        "group": "cosmos-2251-debris",
        "lat": 50.52991324009272,
        "lon": 69.35859519432225,
        "alt_km": 752.93433599317,
        "timestamp": "2025-12-10T05:46:14.224485+00:00",
        "meta_object_name": "COSMOS 2251 DEB",
        "meta_object_id": "1993-036BNS",
        "meta_epoch": "2025-12-09T12:29:10.768128",
        "meta_mean_motion": 14.37484437,
        "meta_eccentricity": 0.0050171,
        "meta_inclination": 74.0126,
        "meta_ra_of_asc_node": 271.0599,
        "meta_arg_of_pericenter": 52.0815,
        "meta_mean_anomaly": 308.4858,
        "meta_ephemeris_type": 0,
        "meta_classification_type": "U",
        "meta_norad_cat_id": 37537,
        "meta_element_set_no": 999,
        "meta_rev_at_epoch": 84987,
        "meta_bstar": 0.00041012,
        "meta_mean_motion_dot": 1.22e-05,
        "meta_mean_motion_ddot": 0,
        "tle_line1": "1 37537U 93036BNS 25343.52026352  .00001220  00000+0  41012-3 0  9993",
        "tle_line2": "2 37537  74.0126 271.0599 0050171  52.0815 308.4858 14.37484437849872"
      },
      "geometry": {
        "type": "Point",
        "coordinates": [
          69.35859519432225,
          50.52991324009272
        ]
      }
    },
    {
      "type": "Feature",
      "properties": {
        "norad_id": 37546,
        "name": "COSMOS 2251 DEB",
        "group": "cosmos-2251-debris",
        "lat": 1.3608223776214676,
        "lon": -77.45340551634163,
        "alt_km": 628.1294671383212,
        "timestamp": "2025-12-10T05:46:14.224495+00:00",
        "meta_object_name": "COSMOS 2251 DEB",
        "meta_object_id": "1993-036BPB",
        "meta_epoch": "2025-12-07T02:21:17.919648",
        "meta_mean_motion": 14.80155071,
        "meta_eccentricity": 0.00062314,
        "meta_inclination": 74.021,
        "meta_ra_of_asc_node": 109.1315,
        "meta_arg_of_pericenter": 130.3601,
        "meta_mean_anomaly": 229.812,
        "meta_ephemeris_type": 0,
        "meta_classification_type": "U",
        "meta_norad_cat_id": 37546,
        "meta_element_set_no": 999,
        "meta_rev_at_epoch": 65804,
        "meta_bstar": 0.0044829614,
        "meta_mean_motion_dot": 0.00034195,
        "meta_mean_motion_ddot": 0,
        "tle_line1": "1 37546U 93036BPB 25341.09812407  .00034195  00000+0  44830-2 0  9994",
        "tle_line2": "2 37546  74.0210 109.1315 0006231 130.3601 229.8120 14.80155071658046"
      },
      "geometry": {
        "type": "Point",
        "coordinates": [
          -77.45340551634163,
          1.3608223776214676
        ]
      }
    },
    {
      "type": "Feature",
      "properties": {
        "norad_id": 37959,
        "name": "COSMOS 2251 DEB",
        "group": "cosmos-2251-debris",
        "lat": -31.64631751297223,
        "lon": -108.11363958693562,
        "alt_km": 664.2466427407717,
        "timestamp": "2025-12-10T05:46:14.224505+00:00",
        "meta_object_name": "COSMOS 2251 DEB",
        "meta_object_id": "1993-036BPJ",
        "meta_epoch": "2025-12-08T23:58:46.135776",
        "meta_mean_motion": 14.58104698,
        "meta_eccentricity": 0.0058089,
        "meta_inclination": 74.0114,
        "meta_ra_of_asc_node": 64.0723,
        "meta_arg_of_pericenter": 207.6848,
        "meta_mean_anomaly": 332.0544,
        "meta_ephemeris_type": 0,
        "meta_classification_type": "U",
        "meta_norad_cat_id": 37959,
        "meta_element_set_no": 999,
        "meta_rev_at_epoch": 80072,
        "meta_bstar": 0.0010164,
        "meta_mean_motion_dot": 4.763e-05,
        "meta_mean_motion_ddot": 0,
        "tle_line1": "1 37959U 93036BPJ 25342.99914509  .00004763  00000+0  10164-2 0  9999",
        "tle_line2": "2 37959  74.0114  64.0723 0058089 207.6848 332.0544 14.58104698800723"
      },
      "geometry": {
        "type": "Point",
        "coordinates": [
          -108.11363958693562,
          -31.64631751297223
        ]
      }
    }
  ]
}